[{"OBJECT_NAME":"GAOFEN-9 03","OBJECT_ID":"2020-039A","EPOCH":"2026-03-09T21:55:15.121344","MEAN_MOTION":15.30529116,"ECCENTRICITY":0.0013094,"INCLINATION":97.5219,"RA_OF_ASC_NODE":201.2158,"ARG_OF_PERICENTER":77.4533,"MEAN_ANOMALY":282.8172,"EPHEMERIS_TYPE":0,"CLASSIFICATION_TYPE":"U","NORAD_CAT_ID":45794,"ELEMENT_SET_NO":999,"REV_AT_EPOCH":31856,"BSTAR":0.00039258132,"MEAN_MOTION_DOT":0.00011544,"MEAN_MOTION_DDOT":0},{"OBJECT_NAME":"STARLINK-32854","OBJECT_ID":"2025-018L","EPOCH":"2026-03-09T20:34:38.294688","MEAN_MOTION":15.30219318,"ECCENTRICITY":0.00010372,"INCLINATION":53.1606,"RA_OF_ASC_NODE":308.8489,"ARG_OF_PERICENTER":107.2316,"MEAN_ANOMALY":252.8799,"EPHEMERIS_TYPE":0,"CLASSIFICATION_TYPE":"U","NORAD_CAT_ID":62816,"ELEMENT_SET_NO":999,"REV_AT_EPOCH":6318,"BSTAR":0.0013266695,"MEAN_MOTION_DOT":0.00039164,"MEAN_MOTION_DDOT":0}]
